NORAD_CAT_ID,OBJECT_NAME,OBJECT_TYPE,EPOCH,MEAN_MOTION,ECCENTRICITY,INCLINATION,RA_OF_ASC_NODE,ARG_OF_PERICENTER,MEAN_ANOMALY,BSTAR,MEAN_MOTION_DOT,MEAN_MOTION_DDOT,TLE_LINE0,TLE_LINE1,TLE_LINE2,SEMIMAJOR_AXIS,PERIOD,APOGEE,PERIGEE,DECAYED
52650.0,STARLINK-3891,PAYLOAD,2023-08-08 20:58:09,15.08835665,0.0001297,53.2171,166.1814,98.7705,261.3434,9.0705e-05,1.156e-05,0.0,0 STARLINK-3891,1 52650U 22052BE  23220.87371696  .00001156  00000-0  90705-4 0  9993,2 52650  53.2171 166.1814 0001297  98.7705 261.3434 15.08835665 69163,6917.894,95.438,540.656,538.861,0.0
52650.0,STARLINK-3891,PAYLOAD,2023-08-10 04:45:52,15.08837155,0.0001353,53.2172,160.2353,99.6052,260.5093,-0.00010809,-2.008e-05,0.0,0 STARLINK-3891,1 52650U 22052BE  23222.19852482 -.00002008  00000-0 -10809-3 0  9992,2 52650  53.2172 160.2353 0001353  99.6052 260.5093 15.08837155 69365,6917.889,95.438,540.69,538.818,0.0
52650.0,STARLINK-3891,PAYLOAD,2023-08-11 04:36:39,15.08842403,0.0001648,53.2139,155.7761,86.3182,273.7998,9.8735e-05,1.284e-05,0.0,0 STARLINK-3891,1 52650U 22052BE  23223.19211898  .00001284  00000-0  98735-4 0  9991,2 52650  53.2139 155.7761 0001648  86.3182 273.7998 15.08842403 69513,6917.873,95.437,540.878,538.598,0.0
52650.0,STARLINK-3891,PAYLOAD,2023-08-11 12:33:35,15.08835753,0.0001768,53.2136,154.289,83.6109,276.5085,7.1223e-05,8.45e-06,0.0,0 STARLINK-3891,1 52650U 22052BE  23223.52332490  .00000845  00000-0  71223-4 0  9995,2 52650  53.2136 154.2890 0001768  83.6109 276.5085 15.08835753 69562,6917.893,95.438,540.981,538.535,0.0
52650.0,STARLINK-3891,PAYLOAD,2023-08-12 18:45:55,15.08837278,0.0001299,53.2183,148.6372,82.5977,277.5163,5.431e-05,5.77e-06,0.0,0 STARLINK-3891,1 52650U 22052BE  23224.78188679  .00000577  00000-0  54310-4 0  9992,2 52650  53.2183 148.6372 0001299  82.5977 277.5163 15.08837278 69759,6917.889,95.438,540.652,538.855,0.0
52650.0,STARLINK-3891,PAYLOAD,2023-08-13 04:18:13,15.08846948,0.0001423,53.2153,146.8548,85.4999,274.6156,3.7256e-05,3.05e-06,0.0,0 STARLINK-3891,1 52650U 22052BE  23225.17931990  .00000305  00000-0  37256-4 0  9997,2 52650  53.2153 146.8548 0001423  85.4999 274.6156 15.08846948 69817,6917.859,95.437,540.709,538.74,0.0
52650.0,STARLINK-3891,PAYLOAD,2023-08-14 00:58:14,15.08839731,0.0001208,53.2165,142.9883,95.8309,264.2821,1.6878e-07,-2.85e-06,0.0,0 STARLINK-3891,1 52650U 22052BE  23226.04044504 -.00000285  00000-0  16878-6 0  9997,2 52650  53.2165 142.9883 0001208  95.8309 264.2821 15.08839731 69940,6917.881,95.438,540.582,538.911,0.0
52650.0,STARLINK-3891,PAYLOAD,2023-08-15 03:59:47,15.08843095,0.0001328,53.2166,137.9326,93.5047,266.6097,6.5122e-06,-1.84e-06,0.0,0 STARLINK-3891,1 52650U 22052BE  23227.16652312 -.00000184  00000-0  65122-5 0  9996,2 52650  53.2166 137.9326 0001328  93.5047 266.6097 15.08843095 70114,6917.871,95.437,540.655,538.817,0.0
52650.0,STARLINK-3891,PAYLOAD,2023-08-16 18:09:03,15.08839021,0.0001324,53.2171,130.7968,88.8765,271.2379,3.7289e-06,-2.29e-06,0.0,0 STARLINK-3891,1 52650U 22052BE  23228.75628748 -.00000229  00000-0  37289-5 0  9991,2 52650  53.2171 130.7968 0001324  88.8765 271.2379 15.08839021 70358,6917.883,95.438,540.664,538.832,0.0
52650.0,STARLINK-3891,PAYLOAD,2023-08-17 00:30:35,15.08844737,0.0001375,53.2171,129.607,87.7982,272.3168,5.9183e-05,6.54e-06,0.0,0 STARLINK-3891,1 52650U 22052BE  23229.02124191  .00000654  00000-0  59183-4 0  9992,2 52650  53.2171 129.6070 0001375  87.7982 272.3168 15.08844737 70396,6917.866,95.437,540.682,538.78,0.0
52650.0,STARLINK-3891,PAYLOAD,2023-08-18 01:56:45,15.08848872,0.0001312,53.2171,124.8511,95.1137,265.0005,2.3618e-05,8.8e-07,0.0,0 STARLINK-3891,1 52650U 22052BE  23230.08108104  .00000088  00000-0  23618-4 0  9991,2 52650  53.2171 124.8511 0001312  95.1137 265.0005 15.08848872 70550,6917.853,95.437,540.626,538.811,0.0
52650.0,STARLINK-3891,PAYLOAD,2023-08-18 03:32:08,15.08866402,0.0001282,53.2172,124.5534,100.4674,259.6463,-0.00015406,-2.741e-05,0.0,0 STARLINK-3891,1 52650U 22052BE  23230.14731604 -.00002741  00000-0 -15406-3 0  9990,2 52650  53.2172 124.5534 0001282 100.4674 259.6463 15.08866402 70562,6917.8,95.436,540.552,538.778,0.0
52650.0,STARLINK-3891,PAYLOAD,2023-08-18 16:15:14,15.08833681,0.0001607,53.2182,122.1758,93.0697,267.048,7.8824e-06,-1.63e-06,0.0,0 STARLINK-3891,1 52650U 22052BE  23230.67725235 -.00000163  00000-0  78824-5 0  9991,2 52650  53.2182 122.1758 0001607  93.0697 267.0480 15.08833681 70642,6917.9,95.438,540.876,538.653,0.0
52650.0,STARLINK-3891,PAYLOAD,2023-08-19 17:41:25,15.0883503,0.0001414,53.2178,117.4176,89.9227,270.1927,-2.5569e-05,-6.95e-06,0.0,0 STARLINK-3891,1 52650U 22052BE  23231.73709726 -.00000695  00000-0 -25569-4 0  9994,2 52650  53.2178 117.4176 0001414  89.9227 270.1927 15.08835030 70806,6917.896,95.438,540.739,538.782,0.0
52650.0,STARLINK-3891,PAYLOAD,2023-08-21 01:29:07,15.08846511,0.0001377,53.2174,111.4686,88.6263,271.4887,0.00013778,1.906e-05,0.0,0 STARLINK-3891,1 52650U 22052BE  23233.06188741  .00001906  00000-0  13778-3 0  9992,2 52650  53.2174 111.4686 0001377  88.6263 271.4887 15.08846511 71004,6917.86,95.437,540.678,538.773,0.0
52650.0,STARLINK-3891,PAYLOAD,2023-08-22 01:19:54,15.08847891,0.0001427,53.2175,107.0091,90.4,269.7155,0.00010538,1.39e-05,0.0,0 STARLINK-3891,1 52650U 22052BE  23234.05548704  .00001390  00000-0  10538-3 0  9999,2 52650  53.2175 107.0091 0001427  90.4000 269.7155 15.08847891 71158,6917.856,95.437,540.708,538.734,0.0
52650.0,STARLINK-3891,PAYLOAD,2023-08-22 17:13:46,15.08840787,0.0001541,53.2186,104.0348,98.7302,261.3864,-4.8654e-05,-1.062e-05,0.0,0 STARLINK-3891,1 52650U 22052BE  23234.71789660 -.00001062  00000-0 -48654-4 0  9999,2 52650  53.2186 104.0348 0001541  98.7302 261.3864 15.08840787 71258,6917.878,95.438,540.809,538.677,0.0
52650.0,STARLINK-3891,PAYLOAD,2023-08-24 13:44:34,15.08842188,0.0001688,53.2177,95.7077,70.4093,289.7081,-7.6241e-05,-1.501e-05,0.0,0 STARLINK-3891,1 52650U 22052BE  23236.57261694 -.00001501  00000-0 -76241-4 0  9998,2 52650  53.2177  95.7077 0001688  70.4093 289.7081 15.08842188 71161,6917.874,95.437,540.906,538.571,0.0
52650.0,STARLINK-3891,PAYLOAD,2023-08-24 23:16:55,15.08738116,0.0002,53.2178,93.9245,74.357,285.7642,0.0014111,0.00022179,0.0,0 STARLINK-3891,1 52650U 22052BE  23236.97008291  .00022179  00000-0  14111-2 0  9992,2 52650  53.2178  93.9245 0002000  74.3570 285.7642 15.08738116 71592,6918.192,95.444,541.44,538.673,0.0
52650.0,STARLINK-3891,PAYLOAD,2023-08-25 18:21:30,15.08839396,0.0001272,53.2174,90.3579,94.594,265.5197,4.2175e-05,3.83e-06,0.0,0 STARLINK-3891,1 52650U 22052BE  23237.76493763  .00000383  00000-0  42175-4 0  9998,2 52650  53.2174  90.3579 0001272  94.5940 265.5197 15.08839396 71711,6917.882,95.438,540.627,538.867,0.0
52650.0,STARLINK-3891,PAYLOAD,2023-08-25 21:32:16,15.08838551,0.0002033,53.2185,89.7611,136.7567,223.3585,4.5321e-05,4.33e-06,0.0,0 STARLINK-3891,1 52650U 22052BE  23237.89741576  .00000433  00000-0  45321-4 0  9992,2 52650  53.2185  89.7611 0002033 136.7567 223.3585 15.08838551 71368,6917.885,95.438,541.156,538.343,0.0
52650.0,STARLINK-3891,PAYLOAD,2023-08-26 00:43:02,15.08846821,0.0001338,53.2181,89.1655,90.736,269.3786,0.00010046,1.312e-05,0.0,0 STARLINK-3891,1 52650U 22052BE  23238.02989099  .00001312  00000-0  10046-3 0  9994,2 52650  53.2181  89.1655 0001338  90.7360 269.3786 15.08846821 71758,6917.86,95.437,540.65,538.799,0.0
52650.0,STARLINK-3891,PAYLOAD,2023-08-26 18:12:19,15.08840028,0.0001212,53.2186,85.8937,107.7836,252.3288,-0.00075367,-0.00012262,0.0,0 STARLINK-3891,1 52650U 22052BE  23238.75856065 -.00012262  00000-0 -75367-3 0  9995,2 52650  53.2186  85.8937 0001212 107.7836 252.3288 15.08840028 71861,6917.88,95.438,540.584,538.907,0.0
52650.0,STARLINK-3891,PAYLOAD,2023-08-26 21:23:03,15.08867471,0.0001175,53.2186,85.2993,106.8353,253.2768,-0.00050699,-8.354e-05,0.0,0 STARLINK-3891,1 52650U 22052BE  23238.89101490 -.00008354  00000-0 -50699-3 0  9993,2 52650  53.2186  85.2993 0001175 106.8353 253.2768 15.08867471 71515,6917.796,95.436,540.474,538.849,0.0
52650.0,STARLINK-3891,PAYLOAD,2023-08-27 00:33:44,15.089377,0.0001122,53.2186,84.7033,128.2229,231.8865,0.00014123,1.966e-05,0.0,0 STARLINK-3891,1 52650U 22052BE  23239.02343131  .00001966  00000-0  14123-3 0  9991,2 52650  53.2186  84.7033 0001122 128.2229 231.8865 15.08937700 71902,6917.582,95.431,540.223,538.671,0.0
52650.0,STARLINK-3891,PAYLOAD,2023-08-27 18:03:10,15.08770454,0.000159,53.2187,81.4326,90.1073,270.0102,-0.00069065,-0.00011242,0.0,0 STARLINK-3891,1 52650U 22052BE  23239.75220155 -.00011242  00000-0 -69065-3 0  9996,2 52650  53.2187  81.4326 0001590  90.1073 270.0102 15.08770454 72018,6918.093,95.442,541.058,538.858,0.0
52650.0,STARLINK-3891,PAYLOAD,2023-08-27 21:13:52,15.08827856,0.0001396,53.2187,80.8373,119.033,241.0802,-0.00014919,-2.661e-05,0.0,0 STARLINK-3891,1 52650U 22052BE  23239.88462972 -.00002661  00000-0 -14919-3 0  9998,2 52650  53.2187  80.8373 0001396 119.0330 241.0802 15.08827856 71668,6917.918,95.438,540.748,538.817,0.0
52650.0,STARLINK-3891,PAYLOAD,2023-08-28 01:59:59,15.08851354,0.0001222,53.2176,79.9487,98.372,261.7411,8.0024e-05,9.86e-06,0.0,0 STARLINK-3891,1 52650U 22052BE  23240.08332979  .00000986  00000-0  80024-4 0  9992,2 52650  53.2176  79.9487 0001222  98.3720 261.7411 15.08851354 72061,6917.846,95.437,540.556,538.865,0.0
52650.0,STARLINK-3891,PAYLOAD,2023-08-28 06:46:10,15.08832055,0.0001318,53.2175,79.0551,93.1625,266.9518,-9.7065e-05,-1.832e-05,0.0,0 STARLINK-3891,1 52650U 22052BE  23240.28206639 -.00001832  00000-0 -97065-4 0  9993,2 52650  53.2175  79.0551 0001318  93.1625 266.9518 15.08832055 72091,6917.905,95.438,540.681,538.858,0.0
52650.0,STARLINK-3891,PAYLOAD,2023-08-28 19:29:15,15.08835817,0.0001193,53.2174,76.6768,86.6744,273.4384,9.1474e-06,-1.42e-06,0.0,0 STARLINK-3891,1 52650U 22052BE  23240.81198496 -.00000142  00000-0  91474-5 0  9994,2 52650  53.2174  76.6768 0001193  86.6744 273.4384 15.08835817 71804,6917.893,95.438,540.583,538.933,0.0
